<?xml version="1.0" encoding="UTF-8"?>
<gpx version="1.1" creator="Kerbside synthetic sample" xmlns="http://www.topografix.com/GPX/1/1">
  <trk>
    <name>Sample walk (synthetic)</name>
    <trkseg>
      <trkpt lat="13.0000000" lon="80.2650000"><ele>6.0</ele><time>2026-10-10T02:00:00Z</time></trkpt>
      <trkpt lat="13.0000000" lon="80.2650576"><ele>6.0</ele><time>2026-10-10T02:00:05Z</time></trkpt>
      <trkpt lat="13.0000000" lon="80.2651152"><ele>6.0</ele><time>2026-10-10T02:00:10Z</time></trkpt>
      <trkpt lat="13.0000000" lon="80.2651729"><ele>6.0</ele><time>2026-10-10T02:00:15Z</time></trkpt>
      <trkpt lat="13.0000000" lon="80.2652305"><ele>6.0</ele><time>2026-10-10T02:00:20Z</time></trkpt>
      <trkpt lat="13.0000000" lon="80.2652881"><ele>6.0</ele><time>2026-10-10T02:00:25Z</time></trkpt>
      <trkpt lat="13.0000000" lon="80.2653457"><ele>6.0</ele><time>2026-10-10T02:00:30Z</time></trkpt>
      <trkpt lat="13.0000000" lon="80.2654033"><ele>6.0</ele><time>2026-10-10T02:00:35Z</time></trkpt>
      <trkpt lat="13.0000000" lon="80.2654610"><ele>6.0</ele><time>2026-10-10T02:00:40Z</time></trkpt>
      <trkpt lat="13.0000000" lon="80.2655186"><ele>6.0</ele><time>2026-10-10T02:00:45Z</time></trkpt>
      <trkpt lat="13.0000000" lon="80.2655762"><ele>6.0</ele><time>2026-10-10T02:00:50Z</time></trkpt>
      <trkpt lat="13.0000000" lon="80.2656338"><ele>6.0</ele><time>2026-10-10T02:00:55Z</time></trkpt>
      <trkpt lat="13.0000000" lon="80.2656915"><ele>6.0</ele><time>2026-10-10T02:01:00Z</time></trkpt>
      <trkpt lat="13.0000000" lon="80.2657491"><ele>6.0</ele><time>2026-10-10T02:01:05Z</time></trkpt>
      <trkpt lat="13.0000000" lon="80.2658067"><ele>6.0</ele><time>2026-10-10T02:01:10Z</time></trkpt>
      <trkpt lat="13.0000000" lon="80.2658643"><ele>6.0</ele><time>2026-10-10T02:01:15Z</time></trkpt>
      <trkpt lat="13.0000000" lon="80.2659219"><ele>6.0</ele><time>2026-10-10T02:01:20Z</time></trkpt>
      <trkpt lat="13.0000000" lon="80.2659796"><ele>6.0</ele><time>2026-10-10T02:01:25Z</time></trkpt>
      <trkpt lat="13.0000000" lon="80.2660372"><ele>6.0</ele><time>2026-10-10T02:01:30Z</time></trkpt>
      <trkpt lat="13.0000000" lon="80.2660948"><ele>6.0</ele><time>2026-10-10T02:01:35Z</time></trkpt>
      <trkpt lat="13.0000000" lon="80.2661524"><ele>6.0</ele><time>2026-10-10T02:01:40Z</time></trkpt>
      <trkpt lat="13.0000000" lon="80.2662100"><ele>6.0</ele><time>2026-10-10T02:01:45Z</time></trkpt>
      <trkpt lat="13.0000000" lon="80.2662677"><ele>6.0</ele><time>2026-10-10T02:01:50Z</time></trkpt>
      <trkpt lat="13.0000000" lon="80.2663253"><ele>6.0</ele><time>2026-10-10T02:01:55Z</time></trkpt>
      <trkpt lat="13.0000000" lon="80.2663829"><ele>6.0</ele><time>2026-10-10T02:02:00Z</time></trkpt>
      <trkpt lat="13.0000000" lon="80.2664405"><ele>6.0</ele><time>2026-10-10T02:02:05Z</time></trkpt>
      <trkpt lat="13.0000000" lon="80.2664982"><ele>6.0</ele><time>2026-10-10T02:02:10Z</time></trkpt>
      <trkpt lat="13.0000000" lon="80.2665558"><ele>6.0</ele><time>2026-10-10T02:02:15Z</time></trkpt>
      <trkpt lat="13.0000000" lon="80.2666134"><ele>6.0</ele><time>2026-10-10T02:02:20Z</time></trkpt>
      <trkpt lat="13.0000000" lon="80.2666710"><ele>6.0</ele><time>2026-10-10T02:02:25Z</time></trkpt>
      <trkpt lat="13.0000000" lon="80.2667286"><ele>6.0</ele><time>2026-10-10T02:02:30Z</time></trkpt>
      <trkpt lat="13.0000000" lon="80.2667863"><ele>6.0</ele><time>2026-10-10T02:02:35Z</time></trkpt>
      <trkpt lat="13.0000000" lon="80.2668439"><ele>6.0</ele><time>2026-10-10T02:02:40Z</time></trkpt>
      <trkpt lat="13.0000000" lon="80.2669015"><ele>6.0</ele><time>2026-10-10T02:02:45Z</time></trkpt>
      <trkpt lat="13.0000000" lon="80.2669591"><ele>6.0</ele><time>2026-10-10T02:02:50Z</time></trkpt>
      <trkpt lat="13.0000000" lon="80.2670167"><ele>6.0</ele><time>2026-10-10T02:02:55Z</time></trkpt>
      <trkpt lat="13.0000000" lon="80.2670744"><ele>6.0</ele><time>2026-10-10T02:03:00Z</time></trkpt>
      <trkpt lat="13.0000000" lon="80.2671320"><ele>6.0</ele><time>2026-10-10T02:03:05Z</time></trkpt>
      <trkpt lat="13.0000000" lon="80.2671896"><ele>6.0</ele><time>2026-10-10T02:03:10Z</time></trkpt>
      <trkpt lat="13.0000000" lon="80.2672472"><ele>6.0</ele><time>2026-10-10T02:03:15Z</time></trkpt>
      <trkpt lat="13.0000000" lon="80.2673049"><ele>6.0</ele><time>2026-10-10T02:03:20Z</time></trkpt>
      <trkpt lat="13.0000000" lon="80.2673625"><ele>6.0</ele><time>2026-10-10T02:03:25Z</time></trkpt>
      <trkpt lat="13.0000000" lon="80.2674201"><ele>6.0</ele><time>2026-10-10T02:03:30Z</time></trkpt>
      <trkpt lat="13.0000000" lon="80.2674777"><ele>6.0</ele><time>2026-10-10T02:03:35Z</time></trkpt>
      <trkpt lat="13.0000000" lon="80.2675353"><ele>6.0</ele><time>2026-10-10T02:03:40Z</time></trkpt>
      <trkpt lat="13.0000000" lon="80.2675930"><ele>6.0</ele><time>2026-10-10T02:03:45Z</time></trkpt>
      <trkpt lat="13.0000000" lon="80.2676506"><ele>6.0</ele><time>2026-10-10T02:03:50Z</time></trkpt>
      <trkpt lat="13.0000000" lon="80.2677082"><ele>6.0</ele><time>2026-10-10T02:03:55Z</time></trkpt>
      <trkpt lat="13.0000000" lon="80.2677658"><ele>6.0</ele><time>2026-10-10T02:04:00Z</time></trkpt>
      <trkpt lat="13.0000561" lon="80.2677658"><ele>6.0</ele><time>2026-10-10T02:04:05Z</time></trkpt>
      <trkpt lat="13.0001123" lon="80.2677658"><ele>6.0</ele><time>2026-10-10T02:04:10Z</time></trkpt>
      <trkpt lat="13.0001684" lon="80.2677658"><ele>6.0</ele><time>2026-10-10T02:04:15Z</time></trkpt>
      <trkpt lat="13.0002246" lon="80.2677658"><ele>6.0</ele><time>2026-10-10T02:04:20Z</time></trkpt>
      <trkpt lat="13.0002807" lon="80.2677658"><ele>6.0</ele><time>2026-10-10T02:04:25Z</time></trkpt>
      <trkpt lat="13.0003369" lon="80.2677658"><ele>6.0</ele><time>2026-10-10T02:04:30Z</time></trkpt>
      <trkpt lat="13.0003930" lon="80.2677658"><ele>6.0</ele><time>2026-10-10T02:04:35Z</time></trkpt>
      <trkpt lat="13.0004492" lon="80.2677658"><ele>6.0</ele><time>2026-10-10T02:04:40Z</time></trkpt>
      <trkpt lat="13.0005053" lon="80.2677658"><ele>6.0</ele><time>2026-10-10T02:04:45Z</time></trkpt>
      <trkpt lat="13.0005614" lon="80.2677658"><ele>6.0</ele><time>2026-10-10T02:04:50Z</time></trkpt>
      <trkpt lat="13.0006176" lon="80.2677658"><ele>6.0</ele><time>2026-10-10T02:04:55Z</time></trkpt>
      <trkpt lat="13.0006737" lon="80.2677658"><ele>6.0</ele><time>2026-10-10T02:05:00Z</time></trkpt>
      <trkpt lat="13.0007299" lon="80.2677658"><ele>6.0</ele><time>2026-10-10T02:05:05Z</time></trkpt>
      <trkpt lat="13.0007860" lon="80.2677658"><ele>6.0</ele><time>2026-10-10T02:05:10Z</time></trkpt>
      <trkpt lat="13.0008422" lon="80.2677658"><ele>6.0</ele><time>2026-10-10T02:05:15Z</time></trkpt>
      <trkpt lat="13.0008983" lon="80.2677658"><ele>6.0</ele><time>2026-10-10T02:05:20Z</time></trkpt>
      <trkpt lat="13.0009545" lon="80.2677658"><ele>6.0</ele><time>2026-10-10T02:05:25Z</time></trkpt>
      <trkpt lat="13.0010106" lon="80.2677658"><ele>6.0</ele><time>2026-10-10T02:05:30Z</time></trkpt>
      <trkpt lat="13.0010667" lon="80.2677658"><ele>6.0</ele><time>2026-10-10T02:05:35Z</time></trkpt>
      <trkpt lat="13.0011229" lon="80.2677658"><ele>6.0</ele><time>2026-10-10T02:05:40Z</time></trkpt>
      <trkpt lat="13.0011790" lon="80.2677658"><ele>6.0</ele><time>2026-10-10T02:05:45Z</time></trkpt>
      <trkpt lat="13.0012352" lon="80.2677658"><ele>6.0</ele><time>2026-10-10T02:05:50Z</time></trkpt>
      <trkpt lat="13.0012913" lon="80.2677658"><ele>6.0</ele><time>2026-10-10T02:05:55Z</time></trkpt>
      <trkpt lat="13.0013475" lon="80.2677658"><ele>6.0</ele><time>2026-10-10T02:06:00Z</time></trkpt>
      <trkpt lat="13.0014036" lon="80.2677658"><ele>6.0</ele><time>2026-10-10T02:06:05Z</time></trkpt>
      <trkpt lat="13.0014598" lon="80.2677658"><ele>6.0</ele><time>2026-10-10T02:06:10Z</time></trkpt>
      <trkpt lat="13.0015159" lon="80.2677658"><ele>6.0</ele><time>2026-10-10T02:06:15Z</time></trkpt>
      <trkpt lat="13.0015720" lon="80.2677658"><ele>6.0</ele><time>2026-10-10T02:06:20Z</time></trkpt>
      <trkpt lat="13.0016282" lon="80.2677658"><ele>6.0</ele><time>2026-10-10T02:06:25Z</time></trkpt>
      <trkpt lat="13.0016843" lon="80.2677658"><ele>6.0</ele><time>2026-10-10T02:06:30Z</time></trkpt>
      <trkpt lat="13.0017405" lon="80.2677658"><ele>6.0</ele><time>2026-10-10T02:06:35Z</time></trkpt>
      <trkpt lat="13.0017966" lon="80.2677658"><ele>6.0</ele><time>2026-10-10T02:06:40Z</time></trkpt>
      <trkpt lat="13.0018528" lon="80.2677658"><ele>6.0</ele><time>2026-10-10T02:06:45Z</time></trkpt>
      <trkpt lat="13.0019089" lon="80.2677658"><ele>6.0</ele><time>2026-10-10T02:06:50Z</time></trkpt>
      <trkpt lat="13.0019651" lon="80.2677658"><ele>6.0</ele><time>2026-10-10T02:06:55Z</time></trkpt>
      <trkpt lat="13.0020212" lon="80.2677658"><ele>6.0</ele><time>2026-10-10T02:07:00Z</time></trkpt>
      <trkpt lat="13.0020773" lon="80.2677658"><ele>6.0</ele><time>2026-10-10T02:07:05Z</time></trkpt>
      <trkpt lat="13.0021335" lon="80.2677658"><ele>6.0</ele><time>2026-10-10T02:07:10Z</time></trkpt>
      <trkpt lat="13.0021896" lon="80.2677658"><ele>6.0</ele><time>2026-10-10T02:07:15Z</time></trkpt>
      <trkpt lat="13.0022458" lon="80.2677658"><ele>6.0</ele><time>2026-10-10T02:07:20Z</time></trkpt>
      <trkpt lat="13.0023019" lon="80.2677658"><ele>6.0</ele><time>2026-10-10T02:07:25Z</time></trkpt>
      <trkpt lat="13.0023581" lon="80.2677658"><ele>6.0</ele><time>2026-10-10T02:07:30Z</time></trkpt>
      <trkpt lat="13.0024142" lon="80.2677658"><ele>6.0</ele><time>2026-10-10T02:07:35Z</time></trkpt>
      <trkpt lat="13.0024704" lon="80.2677658"><ele>6.0</ele><time>2026-10-10T02:07:40Z</time></trkpt>
      <trkpt lat="13.0025265" lon="80.2677658"><ele>6.0</ele><time>2026-10-10T02:07:45Z</time></trkpt>
      <trkpt lat="13.0025826" lon="80.2677658"><ele>6.0</ele><time>2026-10-10T02:07:50Z</time></trkpt>
      <trkpt lat="13.0026388" lon="80.2677658"><ele>6.0</ele><time>2026-10-10T02:07:55Z</time></trkpt>
      <trkpt lat="13.0026949" lon="80.2677658"><ele>6.0</ele><time>2026-10-10T02:08:00Z</time></trkpt>
    </trkseg>
  </trk>
</gpx>
