{
  "type": "FeatureCollection",
  "features": [
    {
      "type": "Feature",
      "geometry": {
        "type": "Point",
        "coordinates": [
          80.2652363,
          13.0
        ]
      },
      "properties": {
        "id": 1,
        "category": "broken_footpath",
        "label": "Broken footpath",
        "severity": 3,
        "severity_label": "severe",
        "summary": "A big crack and one slab is missing from the footpath.",
        "quote": "Footpath is broken here, big crack and one slab is missing. Someone could easily trip on this at night.",
        "time_local": "2026-10-10 07:30:20",
        "needs_review": false,
        "positive": false,
        "line_ids": [
          2,
          3
        ]
      }
    },
    {
      "type": "Feature",
      "geometry": {
        "type": "Point",
        "coordinates": [
          80.2656382,
          13.0
        ]
      },
      "properties": {
        "id": 2,
        "category": "blocked_drain",
        "label": "Blocked or open drain",
        "severity": 2,
        "severity_label": "moderate",
        "summary": "The drain is blocked with lots of plastic.",
        "quote": "Drain is blocked, lots of plastic in it.",
        "time_local": "2026-10-10 07:30:55",
        "needs_review": false,
        "positive": false,
        "line_ids": [
          4
        ]
      }
    },
    {
      "type": "Feature",
      "geometry": {
        "type": "Point",
        "coordinates": [
          80.2662722,
          13.0
        ]
      },
      "properties": {
        "id": 3,
        "category": "shade_tree",
        "label": "Shade tree",
        "severity": 1,
        "severity_label": "minor",
        "summary": "A huge rain tree provides nice shade.",
        "quote": "Huge rain tree here, nice shade.",
        "time_local": "2026-10-10 07:31:50",
        "needs_review": false,
        "positive": true,
        "line_ids": [
          6
        ]
      }
    },
    {
      "type": "Feature",
      "geometry": {
        "type": "Point",
        "coordinates": [
          80.2666173,
          13.0
        ]
      },
      "properties": {
        "id": 4,
        "category": "obstruction",
        "label": "Footpath obstruction",
        "severity": 2,
        "severity_label": "moderate",
        "summary": "Cars are parked fully on the footpath.",
        "quote": "Cars parked fully on the footpath, I have to walk on the road.",
        "time_local": "2026-10-10 07:32:20",
        "needs_review": false,
        "positive": false,
        "line_ids": [
          7
        ]
      }
    },
    {
      "type": "Feature",
      "geometry": {
        "type": "Point",
        "coordinates": [
          80.2674254,
          13.0
        ]
      },
      "properties": {
        "id": 5,
        "category": "streetlight_out",
        "label": "Streetlight not working",
        "severity": 2,
        "severity_label": "moderate",
        "summary": "The street light is not working.",
        "quote": "Street light not working.",
        "time_local": "2026-10-10 07:33:30",
        "needs_review": false,
        "positive": false,
        "line_ids": [
          9
        ]
      }
    },
    {
      "type": "Feature",
      "geometry": {
        "type": "Point",
        "coordinates": [
          80.2677658,
          13.0001134
        ]
      },
      "properties": {
        "id": 6,
        "category": "garbage",
        "label": "Garbage",
        "severity": 2,
        "severity_label": "moderate",
        "summary": "A garbage dump near the corner smells bad.",
        "quote": "Garbage dump near the corner, smells bad.",
        "time_local": "2026-10-10 07:34:10",
        "needs_review": false,
        "positive": false,
        "line_ids": [
          11
        ]
      }
    },
    {
      "type": "Feature",
      "geometry": {
        "type": "Point",
        "coordinates": [
          80.2677658,
          13.000678
        ]
      },
      "properties": {
        "id": 7,
        "category": "waterlogging",
        "label": "Waterlogging",
        "severity": 2,
        "severity_label": "moderate",
        "summary": "Water logging is present even after rain two days ago.",
        "quote": "Water logging here even though it rained two days ago.",
        "time_local": "2026-10-10 07:35:00",
        "needs_review": false,
        "positive": false,
        "line_ids": [
          12
        ]
      }
    },
    {
      "type": "Feature",
      "geometry": {
        "type": "Point",
        "coordinates": [
          80.2677658,
          13.0011254
        ]
      },
      "properties": {
        "id": 8,
        "category": "good_footpath",
        "label": "Good footpath",
        "severity": 1,
        "severity_label": "minor",
        "summary": "The footpath is wide and in good condition.",
        "quote": "Footpath here is nice and wide, really good.",
        "time_local": "2026-10-10 07:35:40",
        "needs_review": false,
        "positive": true,
        "line_ids": [
          13
        ]
      }
    },
    {
      "type": "Feature",
      "geometry": {
        "type": "Point",
        "coordinates": [
          80.2677658,
          13.001799
        ]
      },
      "properties": {
        "id": 9,
        "category": "unsafe_crossing",
        "label": "Unsafe crossing",
        "severity": 3,
        "severity_label": "severe",
        "summary": "There’s no zebra crossing and vehicles travel quickly at the junction.",
        "quote": "No zebra crossing at this junction and vehicles come very fast.",
        "time_local": "2026-10-10 07:36:40",
        "needs_review": false,
        "positive": false,
        "line_ids": [
          14
        ]
      }
    },
    {
      "type": "Feature",
      "geometry": {
        "type": "Point",
        "coordinates": [
          80.2677658,
          13.0026949
        ]
      },
      "properties": {
        "id": 10,
        "category": "blocked_drain",
        "label": "Blocked or open drain",
        "severity": 2,
        "severity_label": "moderate",
        "summary": "An open drain is next to the school gate without a cover.",
        "quote": "Open drain right next to the school gate, no cover.",
        "time_local": "2026-10-10 07:38:20",
        "needs_review": true,
        "positive": false,
        "line_ids": [
          16
        ]
      }
    }
  ]
}